[{"OBJECT_NAME":"OBJECT N","OBJECT_ID":"2024-205N","EPOCH":"2026-03-09T22:36:13.267872","MEAN_MOTION":15.33862123,"ECCENTRICITY":0.00094432,"INCLINATION":97.4211,"RA_OF_ASC_NODE":148.9295,"ARG_OF_PERICENTER":39.7652,"MEAN_ANOMALY":320.4281,"EPHEMERIS_TYPE":0,"CLASSIFICATION_TYPE":"U","NORAD_CAT_ID":61906,"ELEMENT_SET_NO":999,"REV_AT_EPOCH":7364,"BSTAR":0.00078005624,"MEAN_MOTION_DOT":0.00025559,"MEAN_MOTION_DDOT":0},{"OBJECT_NAME":"STARLINK-34179","OBJECT_ID":"2025-110H","EPOCH":"2026-03-09T22:07:33.881952","MEAN_MOTION":15.3021338,"ECCENTRICITY":0.00012899,"INCLINATION":53.16,"RA_OF_ASC_NODE":25.9987,"ARG_OF_PERICENTER":106.8766,"MEAN_ANOMALY":253.2376,"EPHEMERIS_TYPE":0,"CLASSIFICATION_TYPE":"U","NORAD_CAT_ID":64103,"ELEMENT_SET_NO":999,"REV_AT_EPOCH":4591,"BSTAR":0.00078668882,"MEAN_MOTION_DOT":0.00023022,"MEAN_MOTION_DDOT":0}]
